{"fetched_at":"2026-03-29T16:36:15Z","count":15609,"tles":[{"name":"STARLINK-35974","line1":"1 66862U 25281Q   26087.76987587  .00028952  00000+0  10582-2 0  9999","line2":"2 66862  42.9972 235.7086 0001412 274.1813  85.8877 15.27557827 19101","category":"Starlink"}]}