{
  "norad_id": 66862,
  "name": "STARLINK-35974",
  "history": [
    {
      "epoch": "2026-03-28T18:28:37.275168Z",
      "apogee_km": 484.08457408325285,
      "perigee_km": 482.14640747965586,
      "latitude_deg": -7.565319143433839e-06,
      "longitude_deg": 132.36771857183737,
      "height_km": 482.8212422821046,
      "semi_major_axis_km": 6861.252490781454,
      "eccentricity": 0.00014124,
      "inclination_deg": 42.9972,
      "raan_deg": 235.7086,
      "arg_perigee_deg": 274.1813,
      "mean_anomaly_deg": 85.8877,
      "mean_motion_rev_day": 15.27557827
    }
  ]
}